NORAD_CAT_ID,OBJECT_NAME,OBJECT_TYPE,EPOCH,MEAN_MOTION,ECCENTRICITY,INCLINATION,RA_OF_ASC_NODE,ARG_OF_PERICENTER,MEAN_ANOMALY,BSTAR,MEAN_MOTION_DOT,MEAN_MOTION_DDOT,TLE_LINE0,TLE_LINE1,TLE_LINE2,SEMIMAJOR_AXIS,PERIOD,APOGEE,PERIGEE,DECAYED
55651.0,STARLINK-5506,PAYLOAD,2023-06-16 22:00:00,15.15961811,0.0003369,69.998,178.1145,269.3755,80.4956,-0.048313,-0.00864519,0.0,0 STARLINK-5506,1 55651U 23021Z   23167.91667824 -.00864519  00000-0 -48313-1 0  9997,2 55651  69.9980 178.1145 0003369 269.3755  80.4956 15.15961811  1304,6896.197,94.989,520.385,515.739,0.0
55651.0,STARLINK-5506,PAYLOAD,2023-06-17 06:00:02,15.15318312,0.0003349,69.998,177.2512,272.4832,95.7199,-0.051675,-0.00904806,0.0,0 STARLINK-5506,1 55651U 23021Z   23168.25002315 -.00904806  00000-0 -51675-1 0  9992,2 55651  69.9980 177.2512 0003349 272.4832  95.7199 15.15318312 19221,6898.149,95.03,522.325,517.704,0.0
55651.0,STARLINK-5506,PAYLOAD,2023-06-17 14:00:01,15.14712931,0.0003276,69.9977,176.3888,274.3727,111.2272,-0.056679,-0.00970123,0.0,0 STARLINK-5506,1 55651U 23021Z   23168.58334491 -.00970123  00000-0 -56679-1 0  9995,2 55651  69.9977 176.3888 0003276 274.3727 111.2272 15.14712931  1306,6899.987,95.068,524.113,519.592,0.0
55651.0,STARLINK-5506,PAYLOAD,2023-06-17 22:00:01,15.14011335,0.0003298,69.9979,175.5272,267.9598,134.4144,-0.051731,-0.00875046,0.0,0 STARLINK-5506,1 55651U 23021Z   23168.91668981 -.00875046  00000-0 -51731-1 0  9998,2 55651  69.9979 175.5272 0003298 267.9598 134.4144 15.14011335  1309,6902.119,95.112,526.26,521.707,0.0
55651.0,STARLINK-5506,PAYLOAD,2023-06-18 06:00:00,15.13359823,0.0003319,69.998,174.6666,272.9046,145.3316,-0.054377,-0.00901087,0.0,0 STARLINK-5506,1 55651U 23021Z   23169.25001157 -.00901087  00000-0 -54377-1 0  9996,2 55651  69.9980 174.6666 0003319 272.9046 145.3316 15.13359823 19370,6904.099,95.153,528.256,523.673,0.0
55651.0,STARLINK-5506,PAYLOAD,2023-06-18 10:31:00,15.14814505,0.0005783,69.9981,174.1869,279.3871,80.6643,-0.014452,-0.00259886,0.0,0 STARLINK-5506,1 55651U 23021Z   23169.43820054 -.00259886  00000-0 -14452-1 0  9994,2 55651  69.9981 174.1869 0005783 279.3871  80.6643 15.14814505 19700,6899.679,95.061,525.534,517.554,0.0
55651.0,STARLINK-5506,PAYLOAD,2023-06-18 22:00:00,15.12061594,0.0003233,69.9981,172.9478,269.1159,178.5946,-0.055415,-0.00886547,0.0,0 STARLINK-5506,1 55651U 23021Z   23169.91667824 -.00886547  00000-0 -55415-1 0  9995,2 55651  69.9981 172.9478 0003233 269.1159 178.5946 15.12061594  1306,6908.051,95.234,532.149,527.682,0.0
55651.0,STARLINK-5506,PAYLOAD,2023-06-19 06:00:00,15.11399324,0.0003259,69.9982,172.0898,273.9174,187.3754,-0.057019,-0.00894889,0.0,0 STARLINK-5506,1 55651U 23021Z   23170.25001157 -.00894889  00000-0 -57019-1 0  9995,2 55651  69.9982 172.0898 0003259 273.9174 187.3754 15.11399324 19524,6910.069,95.276,534.186,529.682,0.0
55651.0,STARLINK-5506,PAYLOAD,2023-06-19 14:00:01,15.10797254,0.0003135,69.9979,171.2325,275.1913,198.8675,-0.063108,-0.00967942,0.0,0 STARLINK-5506,1 55651U 23021Z   23170.58334491 -.00967942  00000-0 -63108-1 0  9998,2 55651  69.9979 171.2325 0003135 275.1913 198.8675 15.10797254  1303,6911.904,95.314,535.936,531.602,0.0
55651.0,STARLINK-5506,PAYLOAD,2023-06-19 22:00:00,15.10110069,0.000316,69.9983,170.3762,267.5358,218.5347,-0.059068,-0.00894493,0.0,0 STARLINK-5506,1 55651U 23021Z   23170.91667824 -.00894493  00000-0 -59068-1 0  9994,2 55651  69.9983 170.3762 0003160 267.5358 218.5347 15.10110069 19622,6914.001,95.357,538.051,533.681,0.0
55651.0,STARLINK-5506,PAYLOAD,2023-06-20 14:00:01,15.08845095,0.0003083,69.9981,168.6661,272.5728,235.1536,-0.067265,-0.00976803,0.0,0 STARLINK-5506,1 55651U 23021Z   23171.58334491 -.00976803  00000-0 -67265-1 0  9993,2 55651  69.9981 168.6661 0003083 272.5728 235.1536 15.08845095 19726,6917.865,95.437,541.863,537.597,0.0
55651.0,STARLINK-5506,PAYLOAD,2023-06-20 22:00:00,15.08156703,0.0003131,69.9985,167.8124,266.6854,250.7059,-0.062812,-0.0090094,0.0,0 STARLINK-5506,1 55651U 23021Z   23171.91667824 -.00900940  00000-0 -62812-1 0  9991,2 55651  69.9985 167.8124 0003131 266.6854 250.7059 15.08156703  1302,6919.97,95.481,544.001,539.668,0.0
55651.0,STARLINK-5506,PAYLOAD,2023-06-21 06:00:00,15.07479851,0.0003191,69.9985,166.9594,271.0356,255.2481,-0.062649,-0.00883476,0.0,0 STARLINK-5506,1 55651U 23021Z   23172.25001157 -.00883476  00000-0 -62649-1 0  9992,2 55651  69.9985 166.9594 0003191 271.0356 255.2481 15.07479851 19822,6922.041,95.524,546.115,541.697,0.0
55651.0,STARLINK-5506,PAYLOAD,2023-06-21 14:00:01,15.06885557,0.0003084,69.9983,166.1074,272.0439,262.3114,-0.070696,-0.00984848,0.0,0 STARLINK-5506,1 55651U 23021Z   23172.58334491 -.00984848  00000-0 -70696-1 0  9994,2 55651  69.9983 166.1074 0003084 272.0439 262.3114 15.06885557  1308,6923.861,95.561,547.861,543.59,0.0
55651.0,STARLINK-5506,PAYLOAD,2023-06-21 22:00:01,15.0620369,0.0003113,69.9986,165.2562,266.1801,275.5532,-0.066781,-0.00907742,0.0,0 STARLINK-5506,1 55651U 23021Z   23172.91668981 -.00907742  00000-0 -66781-1 0  9993,2 55651  69.9986 165.2562 0003113 266.1801 275.5532 15.06203690 19922,6925.95,95.605,549.971,545.659,0.0
55651.0,STARLINK-5506,PAYLOAD,2023-06-22 14:00:01,15.04925215,0.0003113,69.9985,163.5563,271.4572,282.4863,-0.074123,-0.00979677,0.0,0 STARLINK-5506,1 55651U 23021Z   23173.58334491 -.00979677  00000-0 -74123-1 0  9998,2 55651  69.9985 163.5563 0003113 271.4572 282.4863 15.04925215 20026,6929.872,95.686,553.895,549.58,0.0
55651.0,STARLINK-5506,PAYLOAD,2023-06-23 06:00:00,15.03567521,0.0003198,69.9989,161.8597,270.7177,292.3929,-0.069705,-0.00884423,0.0,0 STARLINK-5506,1 55651U 23021Z   23174.25001157 -.00884423  00000-0 -69705-1 0  9997,2 55651  69.9989 161.8597 0003198 270.7177 292.3929 15.03567521 20129,6934.043,95.772,558.126,553.691,0.0
55651.0,STARLINK-5506,PAYLOAD,2023-06-23 22:00:01,15.02299965,0.0003147,69.9989,160.1666,264.7194,304.4508,-0.075615,-0.00924348,0.0,0 STARLINK-5506,1 55651U 23021Z   23174.91668981 -.00924348  00000-0 -75615-1 0  9992,2 55651  69.9989 160.1666 0003147 264.7194 304.4508 15.02299965 20226,6937.943,95.853,561.992,557.625,0.0
55651.0,STARLINK-5506,PAYLOAD,2023-06-24 22:00:00,15.00349947,0.0003116,69.9989,157.6334,265.3987,306.8662,-0.0808,-0.00947862,0.0,0 STARLINK-5506,1 55651U 23021Z   23175.91667824 -.00947862  00000-0 -80800-1 0  9996,2 55651  69.9989 157.6334 0003116 265.3987 306.8662 15.00349947 20379,6943.953,95.978,567.982,563.655,0.0
55651.0,STARLINK-5506,PAYLOAD,2023-06-25 06:00:00,14.99482583,0.0003141,69.999,156.7906,274.5459,297.255,-0.023442,-0.00277216,0.0,0 STARLINK-5506,1 55651U 23021Z   23176.25001157 -.00277216  00000-0 -23442-1 0  9993,2 55651  69.9990 156.7906 0003141 274.5459 297.2550 14.99482583 20426,6946.631,96.033,570.678,566.314,0.0
55651.0,STARLINK-5506,PAYLOAD,2023-06-25 14:00:01,14.9931461,0.0003054,69.9988,155.9485,274.3484,296.1882,-0.0041459,-0.00050479,0.0,0 STARLINK-5506,1 55651U 23021Z   23176.58334491 -.00050479  00000-0 -41459-2 0  9998,2 55651  69.9988 155.9485 0003054 274.3484 296.1882 14.99314610 20471,6947.15,96.044,571.136,566.893,0.0
55651.0,STARLINK-5506,PAYLOAD,2023-06-25 22:00:01,14.99292702,0.000306,69.9992,155.1068,268.6495,300.5908,0.0024937,0.00030546,0.0,0 STARLINK-5506,1 55651U 23021Z   23176.91668981  .00030546  00000-0  24937-2 0  9992,2 55651  69.9992 155.1068 0003060 268.6495 300.5908 14.99292702 20522,6947.217,96.045,571.208,566.957,0.0
55651.0,STARLINK-5506,PAYLOAD,2023-06-26 14:00:01,14.99317256,0.0003088,69.9991,153.4232,272.7158,293.7605,-0.0035904,-0.00043772,0.0,0 STARLINK-5506,1 55651U 23021Z   23177.58334491 -.00043772  00000-0 -35904-2 0  9995,2 55651  69.9991 153.4232 0003088 272.7158 293.7605 14.99317256 20627,6947.142,96.044,571.152,566.861,0.0
55651.0,STARLINK-5506,PAYLOAD,2023-06-27 06:00:00,14.99301244,0.0003101,69.9992,151.7398,272.8659,290.9177,-0.00031317,-3.924e-05,0.0,0 STARLINK-5506,1 55651U 23021Z   23178.25001157 -.00003924  00000-0 -31317-3 0  9990,2 55651  69.9992 151.7398 0003101 272.8659 290.9177 14.99301244 20729,6947.191,96.045,571.21,566.902,0.0
55651.0,STARLINK-5506,PAYLOAD,2023-06-28 14:00:01,14.99313253,0.0002973,69.9989,148.3729,271.8622,286.5123,-0.0032996,-0.0004025,0.0,0 STARLINK-5506,1 55651U 23021Z   23179.58334491 -.00040250  00000-0 -32996-2 0  9993,2 55651  69.9989 148.3729 0002973 271.8622 286.5123 14.99313253 20927,6947.154,96.044,571.084,566.954,0.0
55651.0,STARLINK-5506,PAYLOAD,2023-06-29 01:55:40,14.99300599,0.0002911,69.9982,147.1183,271.5641,88.5186,-1.5384e-05,-2.82e-06,0.0,0 STARLINK-5506,1 55651U 23021Z   23180.08033175 -.00000282  00000-0 -15384-4 0  9990,2 55651  69.9982 147.1183 0002911 271.5641  88.5186 14.99300599 21009,6947.193,96.045,571.08,567.036,0.0
55651.0,STARLINK-5506,PAYLOAD,2023-07-01 01:57:50,14.9929589,0.0002848,69.9986,142.0642,268.9612,91.1222,-5.1481e-05,-7.24e-06,0.0,0 STARLINK-5506,1 55651U 23021Z   23182.08183920 -.00000724  00000-0 -51481-4 0  9995,2 55651  69.9986 142.0642 0002848 268.9612  91.1222 14.99295890 21305,6947.208,96.045,571.051,567.094,0.0
55651.0,STARLINK-5506,PAYLOAD,2023-07-02 01:58:55,14.99299831,0.0002936,69.9985,139.5373,271.1119,88.9704,1.3618e-06,-7.7e-07,0.0,0 STARLINK-5506,1 55651U 23021Z   23183.08258828 -.00000077  00000-0  13618-5 0  9997,2 55651  69.9985 139.5373 0002936 271.1119  88.9704 14.99299831 21456,6947.195,96.045,571.1,567.021,0.0
55651.0,STARLINK-5506,PAYLOAD,2023-07-03 03:36:04,14.99303373,0.0002948,69.9985,136.8414,270.5307,89.5515,7.7972e-05,8.6e-06,0.0,0 STARLINK-5506,1 55651U 23021Z   23184.15005152  .00000860  00000-0  77972-4 0  9997,2 55651  69.9985 136.8414 0002948 270.5307  89.5515 14.99303373 21619,6947.184,96.045,571.097,567.001,0.0
55651.0,STARLINK-5506,PAYLOAD,2023-07-04 02:01:05,14.99298545,0.0002887,69.9987,134.4828,270.5403,89.5426,-3.6534e-05,-5.41e-06,0.0,0 STARLINK-5506,1 55651U 23021Z   23185.08409227 -.00000541  00000-0 -36534-4 0  9998,2 55651  69.9987 134.4828 0002887 270.5403  89.5426 14.99298545 21753,6947.199,96.045,571.07,567.059,0.0
